ES'HAIL 2               
1 43700U 18090A   26204.54610483  .00000000  00000+0  00000+0 0  9995
2 43700   0.0186  49.6880 0002702 107.0586   6.9459  1.00273645 28049
GEO-KOMPSAT-2A          
1 43823U 18100A   26204.85155845 -.00000339  00000+0  00000+0 0  9999
2 43823   0.0155 101.4134 0002521 357.7709 277.2109  1.00270840 27992
GSAT-11                 
1 43824U 18100B   26204.84081174 -.00000072  00000+0  00000+0 0  9996
2 43824   0.1105 264.3070 0008107 196.6767 217.2716  1.00271739 27847
GSAT-7A                 
1 43864U 18105A   26204.41080279  .00000000  00000+0  00000+0 0  9993
2 43864   0.0213  64.5246 0002019  39.0414  48.2262  1.00269286 27819
COSMOS 2533             
1 43867U 18107A   26204.62617324 -.00000034  00000+0  00000+0 0  9996
2 43867   0.0337 119.3150 0000255  83.6239  33.8296  1.00272099 27815
TJS-3                   
1 43874U 18110A   26203.52197339 -.00000215  00000+0  00000+0 0  9996
2 43874   2.6334  80.0664 0002758  84.7757 111.5470  1.00270949 27774
ZHONGXING-2D            
1 43920U 19001A   26204.85190513 -.00000332  00000+0  00000+0 0  9992
2 43920   0.0146 197.8878 0000352 200.9457 339.4670  1.00272376 54443
HELLAS-SAT 4 & SGS-1    
1 44034U 19007A   26204.61993322  .00000157  00000+0  00000+0 0  9992
2 44034   0.0664 125.8302 0006001  19.9425  57.7559  1.00271830 27730
GSAT-31                 
1 44035U 19007B   26204.62175323  .00000130  00000+0  00000+0 0  9998
2 44035   0.0340  98.8377 0001103 106.7812   7.4621  1.00273427 27338
NUSANTARA SATU          
1 44048U 19009A   26204.71248772 -.00000230  00000+0  00000+0 0  9995
2 44048   0.0312 118.5840 0004931  10.4069 214.9369  1.00270430 27136
ZHONGXING-6C            
1 44067U 19012A   26203.92536367 -.00000331  00000+0  00000+0 0  9994
2 44067   0.0645  69.6138 0015114 345.7625 348.8834  1.00272055 27093
WGS 10 (USA 291)        
1 44071U 19014A   26204.76685792  .00000052  00000+0  00000+0 0  9990
2 44071   0.0141  75.5176 0000347   5.6385 196.7036  1.00272292 26988
TIANLIAN 2-01           
1 44076U 19017A   26204.84141839 -.00000102  00000+0  00000+0 0  9993
2 44076   0.6316  83.0374 0001834  75.3420 163.1037  1.00271805 27016
ARABSAT-6A              
1 44186U 19021A   26204.86364249  .00000159  00000+0  00000+0 0  9995
2 44186   0.0437  12.0266 0002398 237.8704  33.0994  1.00275586 26526
BEIDOU-3 IGSO-1         
1 44204U 19023A   26203.44280863 -.00000208  00000+0  00000+0 0  9996
2 44204  58.7457  37.2857 0026194 223.4912 318.1363  1.00281841  7567
BEIDOU-2 G8             
1 44231U 19027A   26204.85476513 -.00000244  00000+0  00000+0 0  9995
2 44231   1.7489  74.5044 0009514 284.3809  34.9127  1.00270019 26444
YAMAL 601               
1 44307U 19031A   26203.98520046  .00000124  00000+0  00000+0 0  9994
2 44307   0.0206  94.3773 0002706  26.8481 223.1658  1.00273126 26282
AT&T T-16               
1 44333U 19034A   26204.09332698 -.00000111  00000+0  00000+0 0  9990
2 44333   0.0154  76.6092 0000631 292.9337 224.0216  1.00273461 25990
EUTELSAT 7C             
1 44334U 19034B   26204.75625457  .00000053  00000+0  00000+0 0  9996
2 44334   0.0767 184.1158 0003560 283.9303 112.6889  1.00271352  7205
BEIDOU-3 IGSO-2         
1 44337U 19035A   26204.77821130 -.00000115  00000+0  00000+0 0  9998
2 44337  55.2554 158.5416 0039093 213.1598 328.3926  1.00289602 26034
COSMOS 2539             
1 44457U 19048A   26203.33158806  .00000085  00000+0  00000+0 0  9994
2 44457   0.0292 109.1828 0000653  79.5992 242.6658  1.00274394 25575
EDRS-C                  
1 44475U 19049A   26204.85441846 -.00000257  00000+0  00000+0 0  9994
2 44475   0.0174 121.0940 0001136   4.8440 265.7204  1.00271051 25578
INTELSAT 39 (IS-39)     
1 44476U 19049B   26204.76711792  .00000000  00000+0  00000+0 0  9990
2 44476   0.0221  55.4483 0000594 320.7391 263.4215  1.00271086 25492
AMOS-17                 
1 44479U 19050A   26204.82955860  .00000114  00000+0  00000+0 0  9994
2 44479   0.0229 335.5218 0001755 147.3938 134.2633  1.00271282 25555
AEHF-5 (USA 292)        
1 44481U 19051A   26204.84462508 -.00000251  00000+0  00000+0 0  9995
2 44481   1.4246 339.0829 0064604 357.2268   2.4202  1.00271953 25620
EUTELSAT 5 WEST B       
1 44624U 19067A   26204.88030727 -.00000037  00000+0  00000+0 0  9991
2 44624   0.0717 328.7411 0003314 151.6901 133.0730  1.00272259 24806
TJS-4                   
1 44637U 19070A   26204.84697428 -.00000166  00000+0  00000+0 0  9995
2 44637   0.0889 258.5055 0000184 333.4399  98.1378  1.00273478 24901
TIBA-1                  
1 44800U 19080A   26204.54809816  .00000161  00000+0  00000+0 0  9995
2 44800   0.0507   2.7156 0002177 120.2219  51.1655  1.00268859 24429
INMARSAT GX5            
1 44801U 19080B   26204.87475242  .00000080  00000+0  00000+0 0  9994
2 44801   0.0390  29.5437 0002364  98.6921 139.2708  1.00272247  7159
JCSAT-18 (KACIFIC 1)    
1 44868U 19091A   26204.84419939 -.00000196  00000+0  00000+0 0  9996
2 44868   0.0504 243.5479 0000186 268.9137 242.9808  1.00271937 24375
ELEKTRO-L 3             
1 44903U 19095A   26204.84124507 -.00000092  00000+0  00000+0 0  9999
2 44903   0.3489  82.4163 0001664  19.8679 218.1161  1.00271958 24073
SHIJIAN-20 (SJ-20)      
1 44910U 19097A   26204.83500505  .00000136  00000+0  00000+0 0  9992
2 44910   5.0092  74.6113 0015702  58.4166 153.9176  1.00274185 24065
