OBJECT_NAME,OBJECT_ID,EPOCH,MEAN_MOTION,ECCENTRICITY,INCLINATION,RA_OF_ASC_NODE,ARG_OF_PERICENTER,MEAN_ANOMALY,EPHEMERIS_TYPE,CLASSIFICATION_TYPE,NORAD_CAT_ID,ELEMENT_SET_NO,REV_AT_EPOCH,BSTAR,MEAN_MOTION_DOT,MEAN_MOTION_DDOT
ES'HAIL 2,2018-090A,2026-07-23T13:06:23.457312,1.00273645,.0002702,0.0186,49.6880,107.0586,6.9459,0,U,43700,999,2804,0,0,0
GEO-KOMPSAT-2A,2018-100A,2026-07-23T20:26:14.650080,1.00270840,.0002521,0.0155,101.4134,357.7709,277.2109,0,U,43823,999,2799,0,-.339E-5,0
GSAT-11,2018-100B,2026-07-23T20:10:46.134336,1.00271739,.0008107,0.1105,264.3070,196.6767,217.2716,0,U,43824,999,2784,0,-.72E-6,0
GSAT-7A,2018-105A,2026-07-23T09:51:33.361056,1.00269286,.0002019,0.0213,64.5246,39.0414,48.2262,0,U,43864,999,2781,0,0,0
COSMOS 2533,2018-107A,2026-07-23T15:01:41.367936,1.00272099,.0000255,0.0337,119.3150,83.6239,33.8296,0,U,43867,999,2781,0,-.34E-6,0
TJS-3,2018-110A,2026-07-22T12:31:38.500896,1.00270949,.0002758,2.6334,80.0664,84.7757,111.5470,0,U,43874,999,2777,0,-.215E-5,0
ZHONGXING-2D,2019-001A,2026-07-23T20:26:44.603232,1.00272376,.0000352,0.0146,197.8878,200.9457,339.4670,0,U,43920,999,5444,0,-.332E-5,0
HELLAS-SAT 4 & SGS-1,2019-007A,2026-07-23T14:52:42.230208,1.00271830,.0006001,0.0664,125.8302,19.9425,57.7559,0,U,44034,999,2773,0,.157E-5,0
GSAT-31,2019-007B,2026-07-23T14:55:19.479072,1.00273427,.0001103,0.0340,98.8377,106.7812,7.4621,0,U,44035,999,2733,0,.13E-5,0
NUSANTARA SATU,2019-009A,2026-07-23T17:05:58.939008,1.00270430,.0004931,0.0312,118.5840,10.4069,214.9369,0,U,44048,999,2713,0,-.23E-5,0
ZHONGXING-6C,2019-012A,2026-07-22T22:12:31.421088,1.00272055,.00151142,0.0645,69.6138,345.7625,348.8834,0,U,44067,999,2709,0,-.331E-5,0
WGS 10 (USA 291),2019-014A,2026-07-23T18:24:16.524288,1.00272292,.0000347,0.0141,75.5176,5.6385,196.7036,0,U,44071,999,2698,0,.52E-6,0
TIANLIAN 2-01,2019-017A,2026-07-23T20:11:38.548896,1.00271805,.0001834,0.6316,83.0374,75.3420,163.1037,0,U,44076,999,2701,0,-.102E-5,0
ARABSAT-6A,2019-021A,2026-07-23T20:43:38.711136,1.00275586,.0002398,0.0437,12.0266,237.8704,33.0994,0,U,44186,999,2652,0,.159E-5,0
BEIDOU-3 IGSO-1,2019-023A,2026-07-22T10:37:38.665632,1.00281841,.00261943,58.7457,37.2857,223.4912,318.1363,0,U,44204,999,756,0,-.208E-5,0
BEIDOU-2 G8,2019-027A,2026-07-23T20:30:51.707232,1.00270019,.0009514,1.7489,74.5044,284.3809,34.9127,0,U,44231,999,2644,0,-.244E-5,0
YAMAL 601,2019-031A,2026-07-22T23:38:41.319744,1.00273126,.00027065,0.0206,94.3773,26.8481,223.1658,0,U,44307,999,2628,0,.124E-5,0
AT&T T-16,2019-034A,2026-07-23T02:14:23.451072,1.00273461,.00006317,0.0154,76.6092,292.9337,224.0216,0,U,44333,999,2599,0,-.111E-5,0
EUTELSAT 7C,2019-034B,2026-07-23T18:09:00.394848,1.00271352,.000356,0.0767,184.1158,283.9303,112.6889,0,U,44334,999,720,0,.53E-6,0
BEIDOU-3 IGSO-2,2019-035A,2026-07-23T18:40:37.456320,1.00289602,.0039093,55.2554,158.5416,213.1598,328.3926,0,U,44337,999,2603,0,-.115E-5,0
COSMOS 2539,2019-048A,2026-07-22T07:57:29.208384,1.00274394,.00006536,0.0292,109.1828,79.5992,242.6658,0,U,44457,999,2557,0,.85E-6,0
EDRS-C,2019-049A,2026-07-23T20:30:21.754944,1.00271051,.0001136,0.0174,121.0940,4.8440,265.7204,0,U,44475,999,2557,0,-.257E-5,0
INTELSAT 39 (IS-39),2019-049B,2026-07-23T18:24:38.988288,1.00271086,.0000594,0.0221,55.4483,320.7391,263.4215,0,U,44476,999,2549,0,0,0
AMOS-17,2019-050A,2026-07-23T19:54:33.863040,1.00271282,.0001755,0.0229,335.5218,147.3938,134.2633,0,U,44479,999,2555,0,.114E-5,0
AEHF-5 (USA 292),2019-051A,2026-07-23T20:16:15.606912,1.00271953,.0064604,1.4246,339.0829,357.2268,2.4202,0,U,44481,999,2562,0,-.251E-5,0
EUTELSAT 5 WEST B,2019-067A,2026-07-23T21:07:38.548128,1.00272259,.0003314,0.0717,328.7411,151.6901,133.0730,0,U,44624,999,2480,0,-.37E-6,0
TJS-4,2019-070A,2026-07-23T20:19:38.577792,1.00273478,.0000184,0.0889,258.5055,333.4399,98.1378,0,U,44637,999,2490,0,-.166E-5,0
TIBA-1,2019-080A,2026-07-23T13:09:15.681024,1.00268859,.0002177,0.0507,2.7156,120.2219,51.1655,0,U,44800,999,2442,0,.161E-5,0
INMARSAT GX5,2019-080B,2026-07-23T20:59:38.609088,1.00272247,.0002364,0.0390,29.5437,98.6921,139.2708,0,U,44801,999,715,0,.8E-6,0
JCSAT-18 (KACIFIC 1),2019-091A,2026-07-23T20:15:38.827296,1.00271937,.0000186,0.0504,243.5479,268.9137,242.9808,0,U,44868,999,2437,0,-.196E-5,0
ELEKTRO-L 3,2019-095A,2026-07-23T20:11:23.574048,1.00271958,.0001664,0.3489,82.4163,19.8679,218.1161,0,U,44903,999,2407,0,-.92E-6,0
SHIJIAN-20 (SJ-20),2019-097A,2026-07-23T20:02:24.436320,1.00274185,.0015702,5.0092,74.6113,58.4166,153.9176,0,U,44910,999,2406,0,.136E-5,0
